SPAWAR-CAL-R            
1 43776U 18099U   26067.65115975  .00003570  00000+0  25336-3 0  9990
2 43776  97.4524 111.5817 0019701 348.9052  11.1737 15.05212097396878
STARLINK-4526           
1 53438U 22097BC  26068.52282844 -.00001535  00000+0 -78396-4 0  9992
2 53438  53.2155 104.5131 0001208  82.1568 277.9561 15.08837128198774
