[{"OBJECT_NAME":"SPAWAR-CAL-R","OBJECT_ID":"2018-099U","EPOCH":"2026-03-08T15:37:40.202400","MEAN_MOTION":15.05212097,"ECCENTRICITY":0.00197014,"INCLINATION":97.4524,"RA_OF_ASC_NODE":111.5817,"ARG_OF_PERICENTER":348.9052,"MEAN_ANOMALY":11.1737,"EPHEMERIS_TYPE":0,"CLASSIFICATION_TYPE":"U","NORAD_CAT_ID":43776,"ELEMENT_SET_NO":999,"REV_AT_EPOCH":39687,"BSTAR":0.00025335573,"MEAN_MOTION_DOT":3.57e-5,"MEAN_MOTION_DDOT":0},{"OBJECT_NAME":"STARLINK-4526","OBJECT_ID":"2022-097BC","EPOCH":"2026-03-09T12:32:52.377216","MEAN_MOTION":15.08837128,"ECCENTRICITY":0.0001208,"INCLINATION":53.2155,"RA_OF_ASC_NODE":104.5131,"ARG_OF_PERICENTER":82.1568,"MEAN_ANOMALY":277.9561,"EPHEMERIS_TYPE":0,"CLASSIFICATION_TYPE":"U","NORAD_CAT_ID":53438,"ELEMENT_SET_NO":999,"REV_AT_EPOCH":19877,"BSTAR":-7.8396e-5,"MEAN_MOTION_DOT":-1.535e-5,"MEAN_MOTION_DDOT":0}]
